[{"OBJECT_NAME":"STARLINK-2095","OBJECT_ID":"2021-012BM","EPOCH":"2026-03-10T00:00:02.999808","MEAN_MOTION":15.74200805,"ECCENTRICITY":0.00059989,"INCLINATION":53.0265,"RA_OF_ASC_NODE":345.7098,"ARG_OF_PERICENTER":141.0946,"MEAN_ANOMALY":123.1256,"EPHEMERIS_TYPE":0,"CLASSIFICATION_TYPE":"U","NORAD_CAT_ID":47679,"ELEMENT_SET_NO":999,"REV_AT_EPOCH":596,"BSTAR":0.0014953733,"MEAN_MOTION_DOT":0.00224612,"MEAN_MOTION_DDOT":0},{"OBJECT_NAME":"STARLINK-36634","OBJECT_ID":"2026-018E","EPOCH":"2026-03-09T17:13:22.650528","MEAN_MOTION":15.75197144,"ECCENTRICITY":9.536e-5,"INCLINATION":97.2832,"RA_OF_ASC_NODE":134.5504,"ARG_OF_PERICENTER":83.4883,"MEAN_ANOMALY":276.6491,"EPHEMERIS_TYPE":0,"CLASSIFICATION_TYPE":"U","NORAD_CAT_ID":67593,"ELEMENT_SET_NO":999,"REV_AT_EPOCH":731,"BSTAR":0.0017124969,"MEAN_MOTION_DOT":0.00263422,"MEAN_MOTION_DDOT":0}]
